[{"OBJECT_NAME":"ALOS (DAICHI)","OBJECT_ID":"2006-002A","EPOCH":"2026-04-26T20:02:33.986112","MEAN_MOTION":14.69941748,"ECCENTRICITY":0.0001943,"INCLINATION":98.1289,"RA_OF_ASC_NODE":72.5788,"ARG_OF_PERICENTER":103.1793,"MEAN_ANOMALY":256.9629,"EPHEMERIS_TYPE":0,"CLASSIFICATION_TYPE":"U","NORAD_CAT_ID":28931,"ELEMENT_SET_NO":999,"REV_AT_EPOCH":8055,"BSTAR":0.00021701,"MEAN_MOTION_DOT":1.25e-5,"MEAN_MOTION_DDOT":0},{"OBJECT_NAME":"H-2A R/B","OBJECT_ID":"2006-002B","EPOCH":"2026-04-26T16:42:36.305856","MEAN_MOTION":15.17400378,"ECCENTRICITY":0.0052399,"INCLINATION":98.2499,"RA_OF_ASC_NODE":267.9144,"ARG_OF_PERICENTER":78.7914,"MEAN_ANOMALY":281.9201,"EPHEMERIS_TYPE":0,"CLASSIFICATION_TYPE":"U","NORAD_CAT_ID":28932,"ELEMENT_SET_NO":999,"REV_AT_EPOCH":10171,"BSTAR":0.00051589,"MEAN_MOTION_DOT":0.0001061,"MEAN_MOTION_DDOT":0},{"OBJECT_NAME":"RESURS-DK 1","OBJECT_ID":"2006-021A","EPOCH":"2026-04-26T17:38:52.748736","MEAN_MOTION":15.12992027,"ECCENTRICITY":0.000338,"INCLINATION":69.9311,"RA_OF_ASC_NODE":112.7174,"ARG_OF_PERICENTER":338.7068,"MEAN_ANOMALY":21.3957,"EPHEMERIS_TYPE":0,"CLASSIFICATION_TYPE":"U","NORAD_CAT_ID":29228,"ELEMENT_SET_NO":999,"REV_AT_EPOCH":9479,"BSTAR":0.00017672,"MEAN_MOTION_DOT":3.019e-5,"MEAN_MOTION_DDOT":0},{"OBJECT_NAME":"CZ-4B R/B","OBJECT_ID":"2006-046C","EPOCH":"2026-04-26T19:44:25.035936","MEAN_MOTION":15.17359203,"ECCENTRICITY":0.0034617,"INCLINATION":97.5507,"RA_OF_ASC_NODE":161.5921,"ARG_OF_PERICENTER":100.5284,"MEAN_ANOMALY":259.9852,"EPHEMERIS_TYPE":0,"CLASSIFICATION_TYPE":"U","NORAD_CAT_ID":29507,"ELEMENT_SET_NO":999,"REV_AT_EPOCH":6734,"BSTAR":0.0002468,"MEAN_MOTION_DOT":4.933e-5,"MEAN_MOTION_DDOT":0},{"OBJECT_NAME":"CZ-2C R/B","OBJECT_ID":"2007-010B","EPOCH":"2026-04-26T13:28:41.187648","MEAN_MOTION":14.20262666,"ECCENTRICITY":0.0059601,"INCLINATION":98.4036,"RA_OF_ASC_NODE":227.4535,"ARG_OF_PERICENTER":154.0661,"MEAN_ANOMALY":206.3525,"EPHEMERIS_TYPE":0,"CLASSIFICATION_TYPE":"U","NORAD_CAT_ID":31114,"ELEMENT_SET_NO":999,"REV_AT_EPOCH":98651,"BSTAR":7.8466299e-5,"MEAN_MOTION_DOT":1.3e-6,"MEAN_MOTION_DDOT":0},{"OBJECT_NAME":"COSMO-SKYMED 1","OBJECT_ID":"2007-023A","EPOCH":"2026-04-26T14:22:53.484960","MEAN_MOTION":14.96844264,"ECCENTRICITY":0.0001428,"INCLINATION":97.8868,"RA_OF_ASC_NODE":308.0261,"ARG_OF_PERICENTER":101.6023,"MEAN_ANOMALY":258.5358,"EPHEMERIS_TYPE":0,"CLASSIFICATION_TYPE":"U","NORAD_CAT_ID":31598,"ELEMENT_SET_NO":999,"REV_AT_EPOCH":2207,"BSTAR":0.00030791546,"MEAN_MOTION_DOT":3.469e-5,"MEAN_MOTION_DDOT":0},{"OBJECT_NAME":"COSMOS 2428","OBJECT_ID":"2007-029A","EPOCH":"2026-04-26T09:24:39.476448","MEAN_MOTION":14.12945191,"ECCENTRICITY":0.00090552,"INCLINATION":70.9391,"RA_OF_ASC_NODE":103.217,"ARG_OF_PERICENTER":224.1619,"MEAN_ANOMALY":135.878,"EPHEMERIS_TYPE":0,"CLASSIFICATION_TYPE":"U","NORAD_CAT_ID":31792,"ELEMENT_SET_NO":999,"REV_AT_EPOCH":97083,"BSTAR":-6.8006172e-5,"MEAN_MOTION_DOT":-1.75e-6,"MEAN_MOTION_DDOT":0},{"OBJECT_NAME":"SL-16 R/B","OBJECT_ID":"2007-029B","EPOCH":"2026-04-26T07:17:29.862240","MEAN_MOTION":14.14845116,"ECCENTRICITY":0.00025011,"INCLINATION":70.9748,"RA_OF_ASC_NODE":72.2927,"ARG_OF_PERICENTER":267.9543,"MEAN_ANOMALY":241.7857,"EPHEMERIS_TYPE":0,"CLASSIFICATION_TYPE":"U","NORAD_CAT_ID":31793,"ELEMENT_SET_NO":999,"REV_AT_EPOCH":97210,"BSTAR":0.00020358345,"MEAN_MOTION_DOT":3.45e-6,"MEAN_MOTION_DDOT":0},{"OBJECT_NAME":"KORONAS-FOTON","OBJECT_ID":"2009-003A","EPOCH":"2026-04-26T18:55:10.860960","MEAN_MOTION":15.44598135,"ECCENTRICITY":0.0009659,"INCLINATION":82.4314,"RA_OF_ASC_NODE":225.824,"ARG_OF_PERICENTER":347.7014,"MEAN_ANOMALY":12.3996,"EPHEMERIS_TYPE":0,"CLASSIFICATION_TYPE":"U","NORAD_CAT_ID":33504,"ELEMENT_SET_NO":999,"REV_AT_EPOCH":95316,"BSTAR":0.00037055,"MEAN_MOTION_DOT":0.00017307,"MEAN_MOTION_DDOT":0},{"OBJECT_NAME":"CZ-2C R/B","OBJECT_ID":"2011-030B","EPOCH":"2026-04-26T20:10:44.304384","MEAN_MOTION":14.81357586,"ECCENTRICITY":0.0051998,"INCLINATION":97.8617,"RA_OF_ASC_NODE":73.1717,"ARG_OF_PERICENTER":192.0913,"MEAN_ANOMALY":221.4207,"EPHEMERIS_TYPE":0,"CLASSIFICATION_TYPE":"U","NORAD_CAT_ID":37731,"ELEMENT_SET_NO":999,"REV_AT_EPOCH":79722,"BSTAR":0.0001275,"MEAN_MOTION_DOT":9.64e-6,"MEAN_MOTION_DDOT":0},{"OBJECT_NAME":"H-2A R/B","OBJECT_ID":"2012-025E","EPOCH":"2026-04-26T20:11:10.487040","MEAN_MOTION":14.9544283,"ECCENTRICITY":0.0044695,"INCLINATION":98.4787,"RA_OF_ASC_NODE":87.7788,"ARG_OF_PERICENTER":153.7963,"MEAN_ANOMALY":206.5531,"EPHEMERIS_TYPE":0,"CLASSIFICATION_TYPE":"U","NORAD_CAT_ID":38341,"ELEMENT_SET_NO":999,"REV_AT_EPOCH":75541,"BSTAR":0.0002088,"MEAN_MOTION_DOT":2.285e-5,"MEAN_MOTION_DDOT":0},{"OBJECT_NAME":"SHIJIAN-16 (SJ-16)","OBJECT_ID":"2013-057A","EPOCH":"2026-04-26T19:51:25.156800","MEAN_MOTION":14.92478662,"ECCENTRICITY":0.0016242,"INCLINATION":74.9706,"RA_OF_ASC_NODE":93.9459,"ARG_OF_PERICENTER":349.8735,"MEAN_ANOMALY":10.2124,"EPHEMERIS_TYPE":0,"CLASSIFICATION_TYPE":"U","NORAD_CAT_ID":39358,"ELEMENT_SET_NO":999,"REV_AT_EPOCH":67868,"BSTAR":0.00018498,"MEAN_MOTION_DOT":1.873e-5,"MEAN_MOTION_DDOT":0},{"OBJECT_NAME":"SL-4 R/B","OBJECT_ID":"2014-021B","EPOCH":"2026-04-26T06:13:34.212000","MEAN_MOTION":15.40693379,"ECCENTRICITY":0.0092717,"INCLINATION":51.6053,"RA_OF_ASC_NODE":104.9238,"ARG_OF_PERICENTER":277.041,"MEAN_ANOMALY":82.0038,"EPHEMERIS_TYPE":0,"CLASSIFICATION_TYPE":"U","NORAD_CAT_ID":39679,"ELEMENT_SET_NO":999,"REV_AT_EPOCH":66360,"BSTAR":0.00030676,"MEAN_MOTION_DOT":0.00014406,"MEAN_MOTION_DDOT":0},{"OBJECT_NAME":"ALOS-2","OBJECT_ID":"2014-029A","EPOCH":"2026-04-26T19:20:24.921600","MEAN_MOTION":14.79476246,"ECCENTRICITY":0.0001764,"INCLINATION":97.9197,"RA_OF_ASC_NODE":214.7045,"ARG_OF_PERICENTER":84.6819,"MEAN_ANOMALY":275.4594,"EPHEMERIS_TYPE":0,"CLASSIFICATION_TYPE":"U","NORAD_CAT_ID":39766,"ELEMENT_SET_NO":999,"REV_AT_EPOCH":64398,"BSTAR":-3.9404e-5,"MEAN_MOTION_DOT":-3.46e-6,"MEAN_MOTION_DDOT":0},{"OBJECT_NAME":"YAOGAN-29","OBJECT_ID":"2015-069A","EPOCH":"2026-04-26T20:00:42.804000","MEAN_MOTION":14.83041534,"ECCENTRICITY":0.0001844,"INCLINATION":98.0078,"RA_OF_ASC_NODE":145.3775,"ARG_OF_PERICENTER":139.5086,"MEAN_ANOMALY":220.6265,"EPHEMERIS_TYPE":0,"CLASSIFICATION_TYPE":"U","NORAD_CAT_ID":41038,"ELEMENT_SET_NO":999,"REV_AT_EPOCH":56301,"BSTAR":7.5253e-5,"MEAN_MOTION_DOT":5.58e-6,"MEAN_MOTION_DDOT":0},{"OBJECT_NAME":"ASTRO-H (HITOMI)","OBJECT_ID":"2016-012A","EPOCH":"2026-04-26T11:42:19.618848","MEAN_MOTION":15.10279219,"ECCENTRICITY":0.00093775,"INCLINATION":30.9996,"RA_OF_ASC_NODE":48.0205,"ARG_OF_PERICENTER":92.843,"MEAN_ANOMALY":267.3282,"EPHEMERIS_TYPE":0,"CLASSIFICATION_TYPE":"U","NORAD_CAT_ID":41337,"ELEMENT_SET_NO":999,"REV_AT_EPOCH":55946,"BSTAR":0.00020183966,"MEAN_MOTION_DOT":3.484e-5,"MEAN_MOTION_DDOT":0},{"OBJECT_NAME":"HXMT (HUIYAN)","OBJECT_ID":"2017-034A","EPOCH":"2026-04-26T19:38:57.812352","MEAN_MOTION":15.17999794,"ECCENTRICITY":0.0031541,"INCLINATION":43.0129,"RA_OF_ASC_NODE":108.9683,"ARG_OF_PERICENTER":181.8947,"MEAN_ANOMALY":178.1786,"EPHEMERIS_TYPE":0,"CLASSIFICATION_TYPE":"U","NORAD_CAT_ID":42758,"ELEMENT_SET_NO":999,"REV_AT_EPOCH":48985,"BSTAR":0.00021948,"MEAN_MOTION_DOT":4.359e-5,"MEAN_MOTION_DDOT":0}]
