ALOS (DAICHI)           
1 28931U 06002A   26116.83511558  .00001250  00000+0  21701-3 0  9994
2 28931  98.1289  72.5788 0001943 103.1793 256.9629 14.69941748 80550
H-2A R/B                
1 28932U 06002B   26116.69625354  .00010610  00000+0  51589-3 0  9996
2 28932  98.2499 267.9144 0052399  78.7914 281.9201 15.17400378101713
RESURS-DK 1             
1 29228U 06021A   26116.73533274  .00003019  00000+0  17672-3 0  9990
2 29228  69.9311 112.7174 0003380 338.7068  21.3957 15.12992027 94790
CZ-4B R/B               
1 29507U 06046C   26116.82251199  .00004933  00000+0  24680-3 0  9993
2 29507  97.5507 161.5921 0034617 100.5284 259.9852 15.17359203 67340
CZ-2C R/B               
1 31114U 07010B   26116.56158782  .00000130  00000+0  78466-4 0  9994
2 31114  98.4036 227.4535 0059601 154.0661 206.3525 14.20262666986511
COSMO-SKYMED 1          
1 31598U 07023A   26116.59923015  .00003469  00000+0  30792-3 0  9993
2 31598  97.8868 308.0261 0001428 101.6023 258.5358 14.96844264 22077
COSMOS 2428             
1 31792U 07029A   26116.39212357 -.00000175  00000+0 -68006-4 0  9996
2 31792  70.9391 103.2170 0009055 224.1619 135.8780 14.12945191970837
SL-16 R/B               
1 31793U 07029B   26116.30381785  .00000345  00000+0  20358-3 0  9994
2 31793  70.9748  72.2927 0002501 267.9543 241.7857 14.14845116972101
KORONAS-FOTON           
1 33504U 09003A   26116.78832015  .00017307  00000+0  37055-3 0  9997
2 33504  82.4314 225.8240 0009659 347.7014  12.3996 15.44598135953166
CZ-2C R/B               
1 37731U 11030B   26116.84079056  .00000964  00000+0  12750-3 0  9997
2 37731  97.8617  73.1717 0051998 192.0913 221.4207 14.81357586797227
H-2A R/B                
1 38341U 12025E   26116.84109360  .00002285  00000+0  20880-3 0  9993
2 38341  98.4787  87.7788 0044695 153.7963 206.5531 14.95442830755415
SHIJIAN-16 (SJ-16)      
1 39358U 13057A   26116.82737450  .00001873  00000+0  18498-3 0  9997
2 39358  74.9706  93.9459 0016242 349.8735  10.2124 14.92478662678680
SL-4 R/B                
1 39679U 14021B   26116.25942375  .00014406  00000+0  30676-3 0  9994
2 39679  51.6053 104.9238 0092717 277.0410  82.0038 15.40693379663609
ALOS-2                  
1 39766U 14029A   26116.80584400 -.00000346  00000+0 -39404-4 0  9990
2 39766  97.9197 214.7045 0001764  84.6819 275.4594 14.79476246643988
YAOGAN-29               
1 41038U 15069A   26116.83382875  .00000558  00000+0  75253-4 0  9990
2 41038  98.0078 145.3775 0001844 139.5086 220.6265 14.83041534563012
ASTRO-H (HITOMI)        
1 41337U 16012A   26116.48772707  .00003484  00000+0  20184-3 0  9992
2 41337  30.9996  48.0205 0009377  92.8430 267.3282 15.10279219559463
HXMT (HUIYAN)           
1 42758U 17034A   26116.81872468  .00004359  00000+0  21948-3 0  9998
2 42758  43.0129 108.9683 0031541 181.8947 178.1786 15.17999794489857
